NORAD_CAT_ID,OBJECT_NAME,OBJECT_TYPE,EPOCH,MEAN_MOTION,ECCENTRICITY,INCLINATION,RA_OF_ASC_NODE,ARG_OF_PERICENTER,MEAN_ANOMALY,BSTAR,MEAN_MOTION_DOT,MEAN_MOTION_DDOT,TLE_LINE0,TLE_LINE1,TLE_LINE2,SEMIMAJOR_AXIS,PERIOD,APOGEE,PERIGEE,DECAYED
51861.0,STARLINK-3562,PAYLOAD,2024-08-21 14:52:23,15.08837337,0.0001459,53.2171,25.8227,83.3259,276.7899,7.6577e-05,9.31e-06,0.0,0 STARLINK-3562,1 51861U 22022K   24234.61971846  .00000931  00000-0  76577-4 0  9995,2 51861  53.2171  25.8227 0001459  83.3259 276.7899 15.08837337137720,6917.889,95.438,540.763,538.744,0.0
51861.0,STARLINK-3562,PAYLOAD,2024-08-21 16:27:46,15.08842308,0.0001337,53.219,25.5256,81.8219,278.2925,7.629e-05,9.27e-06,0.0,0 STARLINK-3562,1 51861U 22022K   24234.68595578  .00000927  00000-0  76290-4 0  9993,2 51861  53.2190  25.5256 0001337  81.8219 278.2925 15.08842308137736,6917.873,95.437,540.663,538.813,0.0
